NORAD_CAT_ID,OBJECT_NAME,OBJECT_TYPE,EPOCH,MEAN_MOTION,ECCENTRICITY,INCLINATION,RA_OF_ASC_NODE,ARG_OF_PERICENTER,MEAN_ANOMALY,BSTAR,MEAN_MOTION_DOT,MEAN_MOTION_DDOT,TLE_LINE0,TLE_LINE1,TLE_LINE2,SEMIMAJOR_AXIS,PERIOD,APOGEE,PERIGEE,DECAYED
52267.0,STARLINK-3748,PAYLOAD,2023-04-21 03:34:22,15.0883465,0.0001205,53.2135,158.6472,90.4511,269.6619,2.6968e-05,1.41e-06,0.0,0 STARLINK-3748,1 52267U 22041G   23111.14887186  .00000141  00000-0  26968-4 0  9993,2 52267  53.2135 158.6472 0001205  90.4511 269.6619 15.08834650 56532,6917.897,95.438,540.595,538.928,0.0
52267.0,STARLINK-3748,PAYLOAD,2023-04-21 13:06:41,15.08837518,0.0001233,53.2149,156.8624,97.1998,262.9134,8.5255e-06,-1.52e-06,0.0,0 STARLINK-3748,1 52267U 22041G   23111.54631285 -.00000152  00000-0  85255-5 0  9992,2 52267  53.2149 156.8624 0001233  97.1998 262.9134 15.08837518 55375,6917.888,95.438,540.606,538.9,0.0
52267.0,STARLINK-3748,PAYLOAD,2023-04-21 19:28:13,15.08843611,0.0001099,53.2146,155.6731,99.6894,260.4223,-2.1424e-05,-6.29e-06,0.0,0 STARLINK-3748,1 52267U 22041G   23111.81126902 -.00000629  00000-0 -21424-4 0  9994,2 52267  53.2146 155.6731 0001099  99.6894 260.4223 15.08843611 55418,6917.869,95.437,540.495,538.974,0.0
52267.0,STARLINK-3748,PAYLOAD,2023-04-22 12:57:27,15.08852355,0.0001302,53.2145,152.402,102.813,257.3007,8.6319e-05,1.087e-05,0.0,0 STARLINK-3748,1 52267U 22041G   23112.53990162  .00001087  00000-0  86319-4 0  9992,2 52267  53.2145 152.4020 0001302 102.8130 257.3007 15.08852355 55522,6917.843,95.437,540.608,538.807,0.0
52267.0,STARLINK-3748,PAYLOAD,2023-04-22 19:19:01,15.08834401,0.0001251,53.2143,151.2122,88.7066,271.4069,8.9191e-05,1.132e-05,0.0,0 STARLINK-3748,1 52267U 22041G   23112.80487525  .00001132  00000-0  89191-4 0  9998,2 52267  53.2143 151.2122 0001251  88.7066 271.4069 15.08834401 56789,6917.898,95.438,540.628,538.897,0.0
52267.0,STARLINK-3748,PAYLOAD,2023-04-23 12:48:16,15.08833067,0.0001294,53.2146,147.941,87.2763,272.8377,6.8588e-05,8.04e-06,0.0,0 STARLINK-3748,1 52267U 22041G   23113.53352082  .00000804  00000-0  68588-4 0  9990,2 52267  53.2146 147.9410 0001294  87.2763 272.8377 15.08833067 55670,6917.902,95.438,540.662,538.871,0.0
52267.0,STARLINK-3748,PAYLOAD,2023-04-23 19:09:48,15.08841468,0.0001227,53.2153,146.7516,90.7334,269.3799,0.00012439,1.692e-05,0.0,0 STARLINK-3748,1 52267U 22041G   23113.79847466  .00001692  00000-0  12439-3 0  9992,2 52267  53.2153 146.7516 0001227  90.7334 269.3799 15.08841468 55719,6917.876,95.437,540.59,538.892,0.0
52267.0,STARLINK-3748,PAYLOAD,2023-04-24 03:06:43,15.0885014,0.0001278,53.2141,145.2644,93.4067,266.7071,0.00016672,2.367e-05,0.0,0 STARLINK-3748,1 52267U 22041G   23114.12966754  .00002367  00000-0  16672-3 0  9995,2 52267  53.2141 145.2644 0001278  93.4067 266.7071 15.08850140 56982,6917.849,95.437,540.598,538.83,0.0
52267.0,STARLINK-3748,PAYLOAD,2023-04-25 10:54:27,15.08832797,0.0001177,53.2163,139.3182,90.363,269.7497,-2.7552e-06,-3.32e-06,0.0,0 STARLINK-3748,1 52267U 22041G   23115.45448007 -.00000332  00000-0 -27552-5 0  9991,2 52267  53.2163 139.3182 0001177  90.3630 269.7497 15.08832797 57183,6917.902,95.438,540.582,538.953,0.0
52267.0,STARLINK-3748,PAYLOAD,2023-04-26 10:45:14,15.08835605,0.000123,53.2163,134.8571,92.5609,267.5524,-8.8629e-06,-4.29e-06,0.0,0 STARLINK-3748,1 52267U 22041G   23116.44808077 -.00000429  00000-0 -88629-5 0  9997,2 52267  53.2163 134.8571 0001230  92.5609 267.5524 15.08835605 56115,6917.894,95.438,540.61,538.908,0.0
52267.0,STARLINK-3748,PAYLOAD,2023-04-27 10:36:01,15.08830521,0.0001261,53.2162,130.3951,102.4967,257.6166,9.8264e-05,1.276e-05,0.0,0 STARLINK-3748,1 52267U 22041G   23117.44168387  .00001276  00000-0  98264-4 0  9995,2 52267  53.2162 130.3951 0001261 102.4967 257.6166 15.08830521 57484,6917.909,95.438,540.647,538.902,0.0
52267.0,STARLINK-3748,PAYLOAD,2023-04-28 07:16:02,15.08830758,0.0001098,53.2164,126.5291,100.2662,259.8454,1.9289e-05,1.9e-07,0.0,0 STARLINK-3748,1 52267U 22041G   23118.30280953  .00000019  00000-0  19289-4 0  9999,2 52267  53.2164 126.5291 0001098 100.2662 259.8454 15.08830758 56391,6917.909,95.438,540.533,539.014,0.0
52267.0,STARLINK-3748,PAYLOAD,2023-04-29 03:56:03,15.08838532,9.95e-05,53.2162,122.6645,98.7171,261.3934,2.5452e-05,1.17e-06,0.0,0 STARLINK-3748,1 52267U 22041G   23119.16392782  .00000117  00000-0  25452-4 0  9996,2 52267  53.2162 122.6645 0000995  98.7171 261.3934 15.08838532 57749,6917.885,95.438,540.438,539.062,0.0
52267.0,STARLINK-3748,PAYLOAD,2023-04-29 07:06:49,15.08840026,0.0001009,53.2162,122.0698,98.7136,261.397,3.7577e-05,3.1e-06,0.0,0 STARLINK-3748,1 52267U 22041G   23119.29640648  .00000310  00000-0  37577-4 0  9993,2 52267  53.2162 122.0698 0001009  98.7136 261.3970 15.08840026 56547,6917.88,95.438,540.443,539.047,0.0
52267.0,STARLINK-3748,PAYLOAD,2023-04-30 10:08:22,15.0884521,0.0001099,53.2164,117.0151,99.6104,260.5012,0.00016349,2.315e-05,0.0,0 STARLINK-3748,1 52267U 22041G   23120.42247797  .00002315  00000-0  16349-3 0  9998,2 52267  53.2164 117.0151 0001099  99.6104 260.5012 15.08845210 57933,6917.864,95.437,540.49,538.969,0.0
52267.0,STARLINK-3748,PAYLOAD,2023-05-01 05:13:00,15.08840032,0.0001101,53.216,113.4463,99.511,260.6006,1.8353e-05,4e-08,0.0,0 STARLINK-3748,1 52267U 22041G   23121.21736528  .00000004  00000-0  18353-4 0  9992,2 52267  53.2160 113.4463 0001101  99.5110 260.6006 15.08840032 58050,6917.88,95.438,540.507,538.984,0.0
52267.0,STARLINK-3748,PAYLOAD,2023-05-01 09:59:09,15.08840497,0.0001083,53.2158,112.5538,97.6898,262.4217,1.8118e-05,1e-08,0.0,0 STARLINK-3748,1 52267U 22041G   23121.41608469  .00000001  00000-0  18118-4 0  9992,2 52267  53.2158 112.5538 0001083  97.6898 262.4217 15.08840497 56867,6917.879,95.438,540.493,538.995,0.0
52267.0,STARLINK-3748,PAYLOAD,2023-05-02 06:39:10,15.08846961,0.0001105,53.2161,108.688,95.0911,265.0208,3.3944e-06,-2.34e-06,0.0,0 STARLINK-3748,1 52267U 22041G   23122.27719941 -.00000234  00000-0  33944-5 0  9999,2 52267  53.2161 108.6880 0001105  95.0911 265.0208 15.08846961 58212,6917.859,95.437,540.489,538.96,0.0
52267.0,STARLINK-3748,PAYLOAD,2023-05-02 16:11:28,15.0884337,0.0001141,53.2167,106.9033,84.0545,276.0578,-2.1676e-06,-3.22e-06,0.0,0 STARLINK-3748,1 52267U 22041G   23122.67464101 -.00000322  00000-0 -21676-5 0  9996,2 52267  53.2167 106.9033 0001141  84.0545 276.0578 15.08843370 57054,6917.87,95.437,540.524,538.946,0.0
52267.0,STARLINK-3748,PAYLOAD,2023-05-03 04:54:34,15.08839272,0.0001151,53.2164,104.5243,84.4886,275.6238,5.0279e-05,5.12e-06,0.0,0 STARLINK-3748,1 52267U 22041G   23123.20456229  .00000512  00000-0  50279-4 0  9997,2 52267  53.2164 104.5243 0001151  84.4886 275.6238 15.08839272 58359,6917.883,95.438,540.544,538.951,0.0
52267.0,STARLINK-3748,PAYLOAD,2023-05-03 06:29:57,15.08840163,0.0001164,53.2166,104.2272,83.8278,276.2847,5.7203e-05,6.23e-06,0.0,0 STARLINK-3748,1 52267U 22041G   23123.27080161  .00000623  00000-0  57203-4 0  9999,2 52267  53.2166 104.2272 0001164  83.8278 276.2847 15.08840163 57142,6917.88,95.438,540.55,538.94,0.0
52267.0,STARLINK-3748,PAYLOAD,2023-05-04 07:56:07,15.08845507,0.0001232,53.2166,99.4713,80.288,279.8252,5.907e-05,6.52e-06,0.0,0 STARLINK-3748,1 52267U 22041G   23124.33063729  .00000652  00000-0  59070-4 0  9994,2 52267  53.2166  99.4713 0001232  80.2880 279.8252 15.08845507 58522,6917.864,95.437,540.581,538.876,0.0
52267.0,STARLINK-3748,PAYLOAD,2023-05-05 07:46:53,15.08844647,0.0001174,53.2165,95.0062,100.9789,259.1336,5.8109e-05,6.37e-06,0.0,0 STARLINK-3748,1 52267U 22041G   23125.32423494  .00000637  00000-0  58109-4 0  9998,2 52267  53.2165  95.0062 0001174 100.9789 259.1336 15.08844647 57452,6917.866,95.437,540.543,538.919,0.0
52267.0,STARLINK-3748,PAYLOAD,2023-05-06 04:26:55,15.08836735,0.0001132,53.2163,91.1405,88.4309,271.6813,-1.3529e-05,-5.03e-06,0.0,0 STARLINK-3748,1 52267U 22041G   23126.18536493 -.00000503  00000-0 -13529-4 0  9998,2 52267  53.2163  91.1405 0001132  88.4309 271.6813 15.08836735 58808,6917.89,95.438,540.538,538.972,0.0
52267.0,STARLINK-3748,PAYLOAD,2023-05-07 02:42:18,15.088497,0.00011,53.2168,86.9815,87.0485,273.0633,9.3599e-05,1.203e-05,0.0,0 STARLINK-3748,1 52267U 22041G   23127.11271428  .00001203  00000-0  93599-4 0  9997,2 52267  53.2168  86.9815 0001100  87.0485 273.0633 15.08849700 58942,6917.851,95.437,540.477,538.955,0.0
52267.0,STARLINK-3748,PAYLOAD,2023-05-07 04:17:41,15.08851925,0.0001068,53.2168,86.6841,88.1032,272.0083,0.00012068,1.634e-05,0.0,0 STARLINK-3748,1 52267U 22041G   23127.17895223  .00001634  00000-0  12068-3 0  9997,2 52267  53.2168  86.6841 0001068  88.1032 272.0083 15.08851925 57737,6917.844,95.437,540.448,538.97,0.0
52267.0,STARLINK-3748,PAYLOAD,2023-05-08 04:08:27,15.08857845,9.69e-05,53.2169,82.2235,95.5464,264.5638,0.00028714,4.287e-05,0.0,0 STARLINK-3748,1 52267U 22041G   23128.17254619  .00004287  00000-0  28714-3 0  9998,2 52267  53.2169  82.2235 0000969  95.5464 264.5638 15.08857845 59109,6917.826,95.436,540.361,539.021,0.0
52267.0,STARLINK-3748,PAYLOAD,2023-05-08 13:40:47,15.08853189,8.3e-05,53.2168,80.4414,92.7278,267.3809,0.00015752,2.221e-05,0.0,0 STARLINK-3748,1 52267U 22041G   23128.56998897  .00002221  00000-0  15752-3 0  9998,2 52267  53.2168  80.4414 0000830  92.7278 267.3809 15.08853189 59160,6917.84,95.437,540.279,539.131,0.0
52267.0,STARLINK-3748,PAYLOAD,2023-05-09 03:59:16,15.08835512,0.0001069,53.2169,77.7623,81.7524,278.3589,-0.00010329,-1.931e-05,0.0,0 STARLINK-3748,1 52267U 22041G   23129.16616687 -.00001931  00000-0 -10329-3 0  9993,2 52267  53.2169  77.7623 0001069  81.7524 278.3589 15.08835512 59256,6917.894,95.438,540.499,539.02,0.0
52267.0,STARLINK-3748,PAYLOAD,2023-05-10 03:50:03,15.08854301,9.38e-05,53.217,73.3031,89.1608,270.9492,-1.1707e-05,-4.74e-06,0.0,0 STARLINK-3748,1 52267U 22041G   23130.15975721 -.00000474  00000-0 -11707-4 0  9994,2 52267  53.2170  73.3031 0000938  89.1608 270.9492 15.08854301 58181,6917.837,95.437,540.351,539.053,0.0
